{
  "type": "FeatureCollection",
  "name": "unit_emergence_proto_organs",
  "features": [
    {
      "type": "Feature",
      "id": "BLDG-ORIGIN-001",
      "properties": {
        "id": "BLDG-ORIGIN-001",
        "layer": "BUILDING_FOOTPRINT",
        "source_type": "agent_generated_design",
        "confidence": "low",
        "geometry_role": "design_proposal",
        "building_type": "community_service",
        "name_zh": "原点栖息单元",
        "name_en": "Origin habitat cell",
        "area_sqm_declared": 207163.087
      },
      "geometry": {
        "type": "Polygon",
        "coordinates": [
          [
            [
              116.340324,
              39.9705
            ],
            [
              116.340324,
              39.9845
            ],
            [
              116.341884,
              39.9845
            ],
            [
              116.341884,
              39.9705
            ],
            [
              116.340324,
              39.9705
            ]
          ]
        ]
      }
    },
    {
      "type": "Feature",
      "id": "BLDG-METABOLIC-001",
      "properties": {
        "id": "BLDG-METABOLIC-001",
        "layer": "BUILDING_FOOTPRINT",
        "source_type": "agent_generated_design",
        "confidence": "low",
        "geometry_role": "design_proposal",
        "building_type": "ai_r_and_d",
        "name_zh": "众智园代谢单元",
        "name_en": "Zhongzhiyuan metabolic unit",
        "area_sqm_declared": 289932.827
      },
      "geometry": {
        "type": "Polygon",
        "coordinates": [
          [
            [
              116.346252,
              39.99325
            ],
            [
              116.346252,
              40.00725
            ],
            [
              116.348436,
              40.00725
            ],
            [
              116.348436,
              39.99325
            ],
            [
              116.346252,
              39.99325
            ]
          ]
        ]
      }
    },
    {
      "type": "Feature",
      "id": "BLDG-PHENO-001",
      "properties": {
        "id": "BLDG-PHENO-001",
        "layer": "BUILDING_FOOTPRINT",
        "source_type": "agent_generated_design",
        "confidence": "low",
        "geometry_role": "design_proposal",
        "building_type": "mixed_use",
        "name_zh": "大钟寺表型单元",
        "name_en": "Dazhongsi phenotypic unit",
        "area_sqm_declared": 217578.304
      },
      "geometry": {
        "type": "Polygon",
        "coordinates": [
          [
            [
              116.349996,
              39.953
            ],
            [
              116.349996,
              39.96525
            ],
            [
              116.351868,
              39.96525
            ],
            [
              116.351868,
              39.953
            ],
            [
              116.349996,
              39.953
            ]
          ]
        ]
      }
    },
    {
      "type": "Feature",
      "id": "BLDG-CULTURE-001",
      "properties": {
        "id": "BLDG-CULTURE-001",
        "layer": "BUILDING_FOOTPRINT",
        "source_type": "agent_generated_design",
        "confidence": "low",
        "geometry_role": "design_proposal",
        "building_type": "cultural",
        "name_zh": "京张叙事亭",
        "name_en": "Jing-Zhang narrative pavilion",
        "area_sqm_declared": 129511.099
      },
      "geometry": {
        "type": "Polygon",
        "coordinates": [
          [
            [
              116.343444,
              39.95475
            ],
            [
              116.343444,
              39.9635
            ],
            [
              116.345004,
              39.9635
            ],
            [
              116.345004,
              39.95475
            ],
            [
              116.343444,
              39.95475
            ]
          ]
        ]
      }
    }
  ]
}
