{
  "type": "FeatureCollection",
  "name": "unit_emergence_blue_green",
  "features": [
    {
      "type": "Feature",
      "id": "GREEN-SPINE-001",
      "properties": {
        "id": "GREEN-SPINE-001",
        "layer": "GREEN_SPACE",
        "source_type": "agent_generated_design",
        "confidence": "low",
        "geometry_role": "design_proposal",
        "land_use_code": "1401",
        "name_zh": "遗存蓝绿代谢脊",
        "name_en": "Remnant blue-green metabolic spine",
        "area_sqm_declared": 2179693.293
      },
      "geometry": {
        "type": "Polygon",
        "coordinates": [
          [
            [
              116.3427548,
              39.939
            ],
            [
              116.3427548,
              40.0265
            ],
            [
              116.3453812,
              40.0265
            ],
            [
              116.3453812,
              39.939
            ],
            [
              116.3427548,
              39.939
            ]
          ]
        ]
      }
    }
  ]
}
