{
  "type": "FeatureCollection",
  "name": "unit_emergence_tissue_partition",
  "features": [
    {
      "type": "Feature",
      "id": "LU-HABITAT-001",
      "properties": {
        "id": "LU-HABITAT-001",
        "layer": "LAND_USE",
        "source_type": "agent_generated_design",
        "confidence": "low",
        "geometry_role": "design_proposal",
        "land_use_code": "0702",
        "name_zh": "栖息组织带",
        "name_en": "Habitat tissue",
        "tissue": "habitat",
        "area_sqm_declared": 2330407.801
      },
      "geometry": {
        "type": "Polygon",
        "coordinates": [
          [
            [
              116.3397,
              39.939
            ],
            [
              116.3397,
              40.0265
            ],
            [
              116.342196,
              40.0265
            ],
            [
              116.342508,
              40.0265
            ],
            [
              116.342508,
              39.939
            ],
            [
              116.342196,
              39.939
            ],
            [
              116.3397,
              39.939
            ]
          ]
        ]
      }
    },
    {
      "type": "Feature",
      "id": "LU-REMNANT-001",
      "properties": {
        "id": "LU-REMNANT-001",
        "layer": "LAND_USE",
        "source_type": "agent_generated_design",
        "confidence": "low",
        "geometry_role": "design_proposal",
        "land_use_code": "1401",
        "name_zh": "遗存公园带",
        "name_en": "Remnant park tissue",
        "tissue": "remnant",
        "area_sqm_declared": 2589340.19
      },
      "geometry": {
        "type": "Polygon",
        "coordinates": [
          [
            [
              116.342508,
              39.939
            ],
            [
              116.342508,
              40.0265
            ],
            [
              116.345004,
              40.0265
            ],
            [
              116.345628,
              40.0265
            ],
            [
              116.345628,
              39.939
            ],
            [
              116.345004,
              39.939
            ],
            [
              116.342508,
              39.939
            ]
          ]
        ]
      }
    },
    {
      "type": "Feature",
      "id": "LU-METABOLIC-001",
      "properties": {
        "id": "LU-METABOLIC-001",
        "layer": "LAND_USE",
        "source_type": "agent_generated_design",
        "confidence": "low",
        "geometry_role": "design_proposal",
        "land_use_code": "0802",
        "name_zh": "代谢科研带",
        "name_en": "Metabolic tissue",
        "tissue": "metabolic",
        "area_sqm_declared": 3107205.723
      },
      "geometry": {
        "type": "Polygon",
        "coordinates": [
          [
            [
              116.345628,
              39.939
            ],
            [
              116.345628,
              40.0265
            ],
            [
              116.347812,
              40.0265
            ],
            [
              116.349372,
              40.0265
            ],
            [
              116.349372,
              39.939
            ],
            [
              116.347812,
              39.939
            ],
            [
              116.345628,
              39.939
            ]
          ]
        ]
      }
    },
    {
      "type": "Feature",
      "id": "LU-PHENO-001",
      "properties": {
        "id": "LU-PHENO-001",
        "layer": "LAND_USE",
        "source_type": "agent_generated_design",
        "confidence": "low",
        "geometry_role": "design_proposal",
        "land_use_code": "09",
        "name_zh": "表型服务带",
        "name_en": "Phenotypic tissue",
        "tissue": "phenotypic",
        "area_sqm_declared": 2589336.025
      },
      "geometry": {
        "type": "Polygon",
        "coordinates": [
          [
            [
              116.349372,
              39.939
            ],
            [
              116.349372,
              40.0265
            ],
            [
              116.35062,
              40.0265
            ],
            [
              116.352492,
              40.0265
            ],
            [
              116.352492,
              39.939
            ],
            [
              116.35062,
              39.939
            ],
            [
              116.349372,
              39.939
            ]
          ]
        ]
      }
    },
    {
      "type": "Feature",
      "id": "LU-FALLOW-001",
      "properties": {
        "id": "LU-FALLOW-001",
        "layer": "LAND_USE",
        "source_type": "agent_generated_design",
        "confidence": "low",
        "geometry_role": "design_proposal",
        "land_use_code": "16",
        "name_zh": "休耕留白带",
        "name_en": "Fallow tissue",
        "tissue": "fallow",
        "area_sqm_declared": 2330400.816
      },
      "geometry": {
        "type": "Polygon",
        "coordinates": [
          [
            [
              116.353116,
              40.0265
            ],
            [
              116.3553,
              40.0265
            ],
            [
              116.3553,
              39.939
            ],
            [
              116.353116,
              39.939
            ],
            [
              116.352492,
              39.939
            ],
            [
              116.352492,
              40.0265
            ],
            [
              116.353116,
              40.0265
            ]
          ]
        ]
      }
    }
  ]
}
