{
  "type": "FeatureCollection",
  "name": "unit_emergence_phasing",
  "features": [
    {
      "type": "Feature",
      "id": "PHASE-01",
      "properties": {
        "id": "PHASE-01",
        "layer": "PHASE",
        "source_type": "agent_generated_design",
        "confidence": "low",
        "geometry_role": "design_proposal",
        "phase": "phase_1",
        "name_zh": "近期：痕迹缝合与栖息单元",
        "name_en": "Near term: trace stitching and habitat units",
        "area_sqm_declared": 7810468.505
      },
      "geometry": {
        "type": "Polygon",
        "coordinates": [
          [
            [
              116.345628,
              39.9425
            ],
            [
              116.345628,
              39.939
            ],
            [
              116.345004,
              39.939
            ],
            [
              116.342196,
              39.939
            ],
            [
              116.3397,
              39.939
            ],
            [
              116.3397,
              39.9425
            ],
            [
              116.3397,
              39.974
            ],
            [
              116.3397,
              40.0265
            ],
            [
              116.342196,
              40.0265
            ],
            [
              116.345004,
              40.0265
            ],
            [
              116.345628,
              40.0265
            ],
            [
              116.345628,
              39.974
            ],
            [
              116.3553,
              39.974
            ],
            [
              116.3553,
              39.9425
            ],
            [
              116.345628,
              39.9425
            ]
          ]
        ]
      }
    },
    {
      "type": "Feature",
      "id": "PHASE-02",
      "properties": {
        "id": "PHASE-02",
        "layer": "PHASE",
        "source_type": "agent_generated_design",
        "confidence": "low",
        "geometry_role": "design_proposal",
        "phase": "phase_2",
        "name_zh": "中期：众智园代谢回路",
        "name_en": "Mid term: Zhongzhiyuan metabolic loop",
        "area_sqm_declared": 3625073.078
      },
      "geometry": {
        "type": "Polygon",
        "coordinates": [
          [
            [
              116.345628,
              39.939
            ],
            [
              116.345628,
              40.0265
            ],
            [
              116.347812,
              40.0265
            ],
            [
              116.349996,
              40.0265
            ],
            [
              116.349996,
              39.939
            ],
            [
              116.347812,
              39.939
            ],
            [
              116.345628,
              39.939
            ]
          ]
        ]
      }
    },
    {
      "type": "Feature",
      "id": "PHASE-03",
      "properties": {
        "id": "PHASE-03",
        "layer": "PHASE",
        "source_type": "agent_generated_design",
        "confidence": "low",
        "geometry_role": "design_proposal",
        "phase": "phase_3",
        "name_zh": "远期：大钟寺表型与休耕复核",
        "name_en": "Long term: Dazhongsi phenotype and fallow review",
        "area_sqm_declared": 4401869.486
      },
      "geometry": {
        "type": "Polygon",
        "coordinates": [
          [
            [
              116.349996,
              39.939
            ],
            [
              116.349996,
              40.0265
            ],
            [
              116.35062,
              40.0265
            ],
            [
              116.353116,
              40.0265
            ],
            [
              116.3553,
              40.0265
            ],
            [
              116.3553,
              39.939
            ],
            [
              116.353116,
              39.939
            ],
            [
              116.35062,
              39.939
            ],
            [
              116.349996,
              39.939
            ]
          ]
        ]
      }
    }
  ]
}
