{
  "type": "FeatureCollection",
  "name": "unit_emergence_public_interface",
  "features": [
    {
      "type": "Feature",
      "id": "PUBLIC-SPINE-001",
      "properties": {
        "id": "PUBLIC-SPINE-001",
        "layer": "PUBLIC_SPACE",
        "source_type": "agent_generated_design",
        "confidence": "low",
        "geometry_role": "design_proposal",
        "name_zh": "单元涌现公共界面",
        "name_en": "Unit-emergence public interface",
        "area_sqm_declared": 2030971.992
      },
      "geometry": {
        "type": "Polygon",
        "coordinates": [
          [
            [
              116.3433124,
              39.939
            ],
            [
              116.3433124,
              40.0265
            ],
            [
              116.3457596,
              40.0265
            ],
            [
              116.3457596,
              39.939
            ],
            [
              116.3433124,
              39.939
            ]
          ]
        ]
      }
    }
  ]
}
