{
  "type": "FeatureCollection",
  "name": "unit_emergence_agent_paths",
  "features": [
    {
      "type": "Feature",
      "id": "ROAD-MILE-001",
      "properties": {
        "id": "ROAD-MILE-001",
        "layer": "ROAD_CENTERLINE",
        "source_type": "agent_generated_design",
        "confidence": "low",
        "geometry_role": "design_proposal",
        "road_class": "greenway",
        "name_zh": "痕迹慢行脊",
        "name_en": "Trace walking spine"
      },
      "geometry": {
        "type": "LineString",
        "coordinates": [
          [
            116.34438,
            39.9425
          ],
          [
            116.34438,
            40.023
          ]
        ]
      }
    },
    {
      "type": "Feature",
      "id": "ROAD-CROSS-N",
      "properties": {
        "id": "ROAD-CROSS-N",
        "layer": "ROAD_CENTERLINE",
        "source_type": "agent_generated_design",
        "confidence": "low",
        "geometry_role": "design_proposal",
        "road_class": "pedestrian",
        "name_zh": "众智园代谢横联",
        "name_en": "Metabolic cross-link"
      },
      "geometry": {
        "type": "LineString",
        "coordinates": [
          [
            116.341761,
            40.00725
          ],
          [
            116.354052,
            40.00725
          ]
        ]
      }
    },
    {
      "type": "Feature",
      "id": "ROAD-CROSS-C",
      "properties": {
        "id": "ROAD-CROSS-C",
        "layer": "ROAD_CENTERLINE",
        "source_type": "agent_generated_design",
        "confidence": "low",
        "geometry_role": "design_proposal",
        "road_class": "cycleway",
        "name_zh": "原点栖息横联",
        "name_en": "Habitat cross-link"
      },
      "geometry": {
        "type": "LineString",
        "coordinates": [
          [
            116.340636,
            39.981
          ],
          [
            116.35402,
            39.981
          ]
        ]
      }
    },
    {
      "type": "Feature",
      "id": "ROAD-CROSS-S",
      "properties": {
        "id": "ROAD-CROSS-S",
        "layer": "ROAD_CENTERLINE",
        "source_type": "agent_generated_design",
        "confidence": "low",
        "geometry_role": "design_proposal",
        "road_class": "transit_connection",
        "name_zh": "大钟寺表型接驳",
        "name_en": "Phenotypic transit link"
      },
      "geometry": {
        "type": "LineString",
        "coordinates": [
          [
            116.340636,
            39.95475
          ],
          [
            116.354052,
            39.95475
          ]
        ]
      }
    }
  ]
}
